{"type": "Feature", "properties": {"name": "Kabupaten Bangkalan", "source": "GADM level-2 (via mahendrayudha/indonesia-geojson), disederhanakan"}, "geometry": {"type": "Polygon", "coordinates": [[[112.99257659900013, -7.20243835499997], [112.96482086300011, -7.199743270999932], [112.95294952400002, -7.192855833999943], [112.8911590580002, -7.178034304999869], [112.86486053400029, -7.162668226999926], [112.84511566100002, -7.165686130999973], [112.80070495500001, -7.157524585999965], [112.79096984900002, -7.161581038999941], [112.77693176300022, -7.159422396999958], [112.76923370300005, -7.162903784999969], [112.76522064200014, -7.15215158399991], [112.74948120200008, -7.15052318499994], [112.75153350800008, -7.153604984999902], [112.74038696300022, -7.165307044999963], [112.744506999, -7.16897199899995], [112.7469559990003, -7.16772999899996], [112.7459030010001, -7.170421000999966], [112.72952270500014, -7.170128821999924], [112.72235107400013, -7.175711154999874], [112.7059249880001, -7.167363166999962], [112.6911468510001, -7.153986929999974], [112.70383453300008, -7.113264559999891], [112.70586395300029, -7.096296786999915], [112.70163726800024, -7.092801569999949], [112.69166565, -7.09699153899993], [112.68576812700007, -7.09552812599992], [112.68651580900007, -7.089310646999934], [112.67342376800002, -7.073466301999929], [112.6735916140002, -7.059717177999971], [112.67651367300016, -7.056868553999891], [112.6806869510001, -7.034704207999937], [112.68846130300017, -7.029723166999929], [112.71106720000012, -7.040588378999871], [112.7235260010001, -7.038418291999903], [112.74055480900006, -7.018153666999922], [112.77044677700007, -7.000629423999897], [112.78867340100021, -6.984257220999837], [112.79282379100005, -6.978433608999978], [112.79084777800006, -6.973830222999879], [112.8040161130001, -6.96390056499996], [112.82833099400011, -6.930719852999914], [112.82648468000014, -6.9274306289999], [112.82979583800022, -6.92121505699987], [112.82234954900002, -6.912736414999927], [112.82356262100006, -6.910022735999917], [112.83224487300004, -6.906312463999882], [112.83545684800015, -6.915973661999885], [112.84104156500007, -6.916435240999931], [112.84838104200014, -6.908895014999871], [112.84735870400027, -6.898938655999871], [112.85921478200021, -6.893069265999884], [112.87125396800013, -6.891851423999924], [112.86989593500027, -6.893897532999972], [112.87525939900002, -6.897952556999883], [112.87901306200013, -6.896545886999945], [112.87751770000023, -6.891464232999965], [112.88204193100023, -6.890491007999913], [112.92079925500013, -6.893889426999976], [112.92545318600003, -6.889860630999976], [112.933082581, -6.891401290999909], [112.95190429700017, -6.886978147999969], [112.96158599900014, -6.889063835999934], [112.96366119400011, -6.886700629999893], [112.9705429080002, -6.8887982359999], [112.97848510800009, -6.885590552999872], [112.98734283500016, -6.886864662999869], [112.99288177500011, -6.883407592999959], [112.995811462, -6.885633944999938], [112.99980926500007, -6.881588935999901], [113.00219726700016, -6.887470720999943], [113.00614929200003, -6.881137846999877], [113.02563476500029, -6.881005762999962], [113.02365875200019, -6.882413863999943], [113.02735138000014, -6.883591174999935], [113.03388977000009, -6.879476068999963], [113.05265808100012, -6.884908675999952], [113.06359100400016, -6.88200044499996], [113.07737732000021, -6.883579253999926], [113.0874481190001, -6.888769149999973], [113.10797882100007, -6.888527870999951], [113.11061859200026, -6.894425391999903], [113.11724090500013, -6.894449232999932], [113.12117004400022, -6.889986991999933], [113.12718200600011, -6.898141383999814], [113.12753296000005, -6.904701708999937], [113.11876678400017, -6.905104159999951], [113.1159973140002, -6.935714243999882], [113.11121368500005, -6.93735933399995], [113.10164642400025, -6.931810378999899], [113.09510040300017, -6.9457974419999], [113.09918975900007, -6.951011656999924], [113.10816955500002, -6.953402995999909], [113.10247039800004, -6.959991454999965], [113.10615539600008, -6.97214078899998], [113.10939788800022, -6.974139689999902], [113.10392761100013, -6.985950945999889], [113.11256408600013, -6.988915919999897], [113.13384246800001, -6.976145266999936], [113.1478118900003, -6.984626293999895], [113.14475250200007, -6.989298342999916], [113.14627075300007, -6.997766971999965], [113.140907287, -6.999999998999954], [113.13875579800026, -7.005352972999958], [113.14228057800005, -7.014079093999953], [113.13359069900002, -7.023640631999967], [113.13347625800009, -7.035539626999935], [113.127853393, -7.03657340999996], [113.11522674600019, -7.031735418999972], [113.11608886600027, -7.04952478499996], [113.11064910900006, -7.047163008999973], [113.11345672500022, -7.05305528599996], [113.111968993, -7.059689998999943], [113.11984252900004, -7.066992758999959], [113.12020873900019, -7.07993221199996], [113.1167755130001, -7.082043646999921], [113.11452484100005, -7.078620910999973], [113.10812378000026, -7.077841281999952], [113.11194610700011, -7.095150947999969], [113.1161270130001, -7.098412512999914], [113.11592102100019, -7.104572296999947], [113.11267089800026, -7.105822562999947], [113.11553955000011, -7.116165159999923], [113.10727691600005, -7.107961177999869], [113.10756683400018, -7.117203711999878], [113.10382842900003, -7.125472545999969], [113.09615325900006, -7.127437113999974], [113.09216308500015, -7.133172034999916], [113.0950317390002, -7.14169597599988], [113.09358215400005, -7.151215552999929], [113.09739685000022, -7.156816004999939], [113.09185791100015, -7.157668112999943], [113.08826446500018, -7.156388759999857], [113.08808135900006, -7.152215003999913], [113.07701110800008, -7.151008605999948], [113.07019043000014, -7.162508011999876], [113.05759430000012, -7.163670063999973], [113.05480957000009, -7.169857978999971], [113.05646515000012, -7.174945831999878], [113.04983520400003, -7.178644179999878], [113.048210143, -7.184324741999887], [113.06123352100019, -7.190078735999919], [113.06095123300008, -7.196104525999942], [113.05030822800018, -7.195767879999892], [113.04036712600009, -7.212881564999975], [113.01383209200014, -7.20546007199988], [113.00064849900025, -7.209431170999949], [112.99257659900013, -7.20243835499997]]]}}